STARLINK-3397
1 51115U 22005M   23196.71448055  .00000946  00000+0  77490-4 0  9996
2 51115  53.2187 314.5257 0001207  93.1814 266.9316 15.08838997 83859
STARLINK-3243
1 51116U 22005N   23197.78631324  .00000688  00000+0  61280-4 0  9991
2 51116  53.2181 309.6907 0000988  95.8712 264.2393 15.08843525 84010
STARLINK-3391
1 51117U 22005P   23196.69703338  .00000562  00000+0  53406-4 0  9998
2 51117  53.2199 314.5836 0001252  98.5373 261.5761 15.08837205 83852
STARLINK-3394
1 51118U 22005Q   23197.31432720  .00000818  00000+0  69476-4 0  9991
2 51118  53.2186 311.8389 0000670  84.9209 275.1860 15.08828103 83940
STARLINK-3390
1 51119U 22005R   23197.68968547  .00001342  00000+0  10238-3 0  9997
2 51119  53.2183 310.1553 0001337 102.8240 257.2902 15.08833882 84005
STARLINK-3398
1 51120U 22005S   23197.74856024  .00000107  00000+0  24799-4 0  9998
2 51120  53.2180 309.8888 0001047  95.4620 264.6491 15.08841318 84016
STARLINK-3399
1 51121U 22005T   23197.83047947  .00001473  00000+0  11062-3 0  9990
2 51121  53.2170 309.5296 0001127  96.1124 263.9996 15.08843363 84027
STARLINK-3373
1 51122U 22005U   23197.62072074  .00000374  00000+0  41608-4 0  9996
2 51122  53.2185 310.4742 0001081  92.8163 267.2953 15.08839348 83999
STARLINK-3392
1 51123U 22005V   23198.00984083 -.00000386  00000+0 -61880-5 0  9992
2 51123  53.2173 308.7164 0000877  86.0215 274.0877 15.08840361 84023
STARLINK-3389
1 51124U 22005W   23197.58940653 -.00000445  00000+0 -98607-5 0  9993
2 51124  53.2187 320.6043 0001108  99.3318 260.7799 15.08837293 83852
STARLINK-3387
1 51125U 22005X   23197.64555987 -.00000332  00000+0 -27678-5 0  9998
2 51125  53.2183 320.3612 0001013  96.8173 263.2934 15.08840512 83851
STARLINK-3386
1 51126U 22005Y   23197.71916100 -.00001017  00000+0 -45827-4 0  9991
2 51126  53.2187 320.0336 0001380 103.0377 257.0770 15.08845110 83870
STARLINK-3370
1 51127U 22005Z   23197.64923954  .00000603  00000+0  55989-4 0  9997
2 51127  53.2186 320.3448 0001314 100.9484 259.1656 15.08840944 83864
STARLINK-3400
1 51128U 22005AA  23197.62988351  .00000167  00000+0  28594-4 0  9995
2 51128  53.2177 320.4218 0000734  81.9596 278.1479 15.08836617 83853
