[{
    "OBJECT_NAME": "STARLINK-3397",
    "OBJECT_ID": "2022-005M",
    "EPOCH": "2023-07-15T17:08:51.119520",
    "MEAN_MOTION": 15.08838997,
    "ECCENTRICITY": 0.0001207,
    "INCLINATION": 53.2187,
    "RA_OF_ASC_NODE": 314.5257,
    "ARG_OF_PERICENTER": 93.1814,
    "MEAN_ANOMALY": 266.9316,
    "EPHEMERIS_TYPE": 0,
    "CLASSIFICATION_TYPE": "U",
    "NORAD_CAT_ID": 51115,
    "ELEMENT_SET_NO": 999,
    "REV_AT_EPOCH": 8385,
    "BSTAR": 7.749e-5,
    "MEAN_MOTION_DOT": 9.46e-6,
    "MEAN_MOTION_DDOT": 0
},{
    "OBJECT_NAME": "STARLINK-3243",
    "OBJECT_ID": "2022-005N",
    "EPOCH": "2023-07-16T18:52:17.463936",
    "MEAN_MOTION": 15.08843525,
    "ECCENTRICITY": 9.88e-5,
    "INCLINATION": 53.2181,
    "RA_OF_ASC_NODE": 309.6907,
    "ARG_OF_PERICENTER": 95.8712,
    "MEAN_ANOMALY": 264.2393,
    "EPHEMERIS_TYPE": 0,
    "CLASSIFICATION_TYPE": "U",
    "NORAD_CAT_ID": 51116,
    "ELEMENT_SET_NO": 999,
    "REV_AT_EPOCH": 8401,
    "BSTAR": 6.128e-5,
    "MEAN_MOTION_DOT": 6.88e-6,
    "MEAN_MOTION_DDOT": 0
},{
    "OBJECT_NAME": "STARLINK-3391",
    "OBJECT_ID": "2022-005P",
    "EPOCH": "2023-07-15T16:43:43.684032",
    "MEAN_MOTION": 15.08837205,
    "ECCENTRICITY": 0.0001252,
    "INCLINATION": 53.2199,
    "RA_OF_ASC_NODE": 314.5836,
    "ARG_OF_PERICENTER": 98.5373,
    "MEAN_ANOMALY": 261.5761,
    "EPHEMERIS_TYPE": 0,
    "CLASSIFICATION_TYPE": "U",
    "NORAD_CAT_ID": 51117,
    "ELEMENT_SET_NO": 999,
    "REV_AT_EPOCH": 8385,
    "BSTAR": 5.3406e-5,
    "MEAN_MOTION_DOT": 5.62e-6,
    "MEAN_MOTION_DDOT": 0
},{
    "OBJECT_NAME": "STARLINK-3394",
    "OBJECT_ID": "2022-005Q",
    "EPOCH": "2023-07-16T07:32:37.870080",
    "MEAN_MOTION": 15.08828103,
    "ECCENTRICITY": 6.7e-5,
    "INCLINATION": 53.2186,
    "RA_OF_ASC_NODE": 311.8389,
    "ARG_OF_PERICENTER": 84.9209,
    "MEAN_ANOMALY": 275.186,
    "EPHEMERIS_TYPE": 0,
    "CLASSIFICATION_TYPE": "U",
    "NORAD_CAT_ID": 51118,
    "ELEMENT_SET_NO": 999,
    "REV_AT_EPOCH": 8394,
    "BSTAR": 6.9476e-5,
    "MEAN_MOTION_DOT": 8.18e-6,
    "MEAN_MOTION_DDOT": 0
},{
    "OBJECT_NAME": "STARLINK-3390",
    "OBJECT_ID": "2022-005R",
    "EPOCH": "2023-07-16T16:33:08.824608",
    "MEAN_MOTION": 15.08833882,
    "ECCENTRICITY": 0.0001337,
    "INCLINATION": 53.2183,
    "RA_OF_ASC_NODE": 310.1553,
    "ARG_OF_PERICENTER": 102.824,
    "MEAN_ANOMALY": 257.2902,
    "EPHEMERIS_TYPE": 0,
    "CLASSIFICATION_TYPE": "U",
    "NORAD_CAT_ID": 51119,
    "ELEMENT_SET_NO": 999,
    "REV_AT_EPOCH": 8400,
    "BSTAR": 0.00010238,
    "MEAN_MOTION_DOT": 1.342e-5,
    "MEAN_MOTION_DDOT": 0
},{
    "OBJECT_NAME": "STARLINK-3398",
    "OBJECT_ID": "2022-005S",
    "EPOCH": "2023-07-16T17:57:55.604736",
    "MEAN_MOTION": 15.08841318,
    "ECCENTRICITY": 0.0001047,
    "INCLINATION": 53.218,
    "RA_OF_ASC_NODE": 309.8888,
    "ARG_OF_PERICENTER": 95.462,
    "MEAN_ANOMALY": 264.6491,
    "EPHEMERIS_TYPE": 0,
    "CLASSIFICATION_TYPE": "U",
    "NORAD_CAT_ID": 51120,
    "ELEMENT_SET_NO": 999,
    "REV_AT_EPOCH": 8401,
    "BSTAR": 2.4799e-5,
    "MEAN_MOTION_DOT": 1.07e-6,
    "MEAN_MOTION_DDOT": 0
},{
    "OBJECT_NAME": "STARLINK-3399",
    "OBJECT_ID": "2022-005T",
    "EPOCH": "2023-07-16T19:55:53.426208",
    "MEAN_MOTION": 15.08843363,
    "ECCENTRICITY": 0.0001127,
    "INCLINATION": 53.217,
    "RA_OF_ASC_NODE": 309.5296,
    "ARG_OF_PERICENTER": 96.1124,
    "MEAN_ANOMALY": 263.9996,
    "EPHEMERIS_TYPE": 0,
    "CLASSIFICATION_TYPE": "U",
    "NORAD_CAT_ID": 51121,
    "ELEMENT_SET_NO": 999,
    "REV_AT_EPOCH": 8402,
    "BSTAR": 0.00011062,
    "MEAN_MOTION_DOT": 1.473e-5,
    "MEAN_MOTION_DDOT": 0
},{
    "OBJECT_NAME": "STARLINK-3373",
    "OBJECT_ID": "2022-005U",
    "EPOCH": "2023-07-16T14:53:50.271936",
    "MEAN_MOTION": 15.08839348,
    "ECCENTRICITY": 0.0001081,
    "INCLINATION": 53.2185,
    "RA_OF_ASC_NODE": 310.4742,
    "ARG_OF_PERICENTER": 92.8163,
    "MEAN_ANOMALY": 267.2953,
    "EPHEMERIS_TYPE": 0,
    "CLASSIFICATION_TYPE": "U",
    "NORAD_CAT_ID": 51122,
    "ELEMENT_SET_NO": 999,
    "REV_AT_EPOCH": 8399,
    "BSTAR": 4.1608e-5,
    "MEAN_MOTION_DOT": 3.74e-6,
    "MEAN_MOTION_DDOT": 0
},{
    "OBJECT_NAME": "STARLINK-3392",
    "OBJECT_ID": "2022-005V",
    "EPOCH": "2023-07-17T00:14:10.247712",
    "MEAN_MOTION": 15.08840361,
    "ECCENTRICITY": 8.77e-5,
    "INCLINATION": 53.2173,
    "RA_OF_ASC_NODE": 308.7164,
    "ARG_OF_PERICENTER": 86.0215,
    "MEAN_ANOMALY": 274.0877,
    "EPHEMERIS_TYPE": 0,
    "CLASSIFICATION_TYPE": "U",
    "NORAD_CAT_ID": 51123,
    "ELEMENT_SET_NO": 999,
    "REV_AT_EPOCH": 8402,
    "BSTAR": -6.188e-6,
    "MEAN_MOTION_DOT": -3.86e-6,
    "MEAN_MOTION_DDOT": 0
},{
    "OBJECT_NAME": "STARLINK-3389",
    "OBJECT_ID": "2022-005W",
    "EPOCH": "2023-07-16T14:08:44.724192",
    "MEAN_MOTION": 15.08837293,
    "ECCENTRICITY": 0.0001108,
    "INCLINATION": 53.2187,
    "RA_OF_ASC_NODE": 320.6043,
    "ARG_OF_PERICENTER": 99.3318,
    "MEAN_ANOMALY": 260.7799,
    "EPHEMERIS_TYPE": 0,
    "CLASSIFICATION_TYPE": "U",
    "NORAD_CAT_ID": 51124,
    "ELEMENT_SET_NO": 999,
    "REV_AT_EPOCH": 8385,
    "BSTAR": -9.8607e-6,
    "MEAN_MOTION_DOT": -4.45e-6,
    "MEAN_MOTION_DDOT": 0
},{
    "OBJECT_NAME": "STARLINK-3387",
    "OBJECT_ID": "2022-005X",
    "EPOCH": "2023-07-16T15:29:36.372768",
    "MEAN_MOTION": 15.08840512,
    "ECCENTRICITY": 0.0001013,
    "INCLINATION": 53.2183,
    "RA_OF_ASC_NODE": 320.3612,
    "ARG_OF_PERICENTER": 96.8173,
    "MEAN_ANOMALY": 263.2934,
    "EPHEMERIS_TYPE": 0,
    "CLASSIFICATION_TYPE": "U",
    "NORAD_CAT_ID": 51125,
    "ELEMENT_SET_NO": 999,
    "REV_AT_EPOCH": 8385,
    "BSTAR": -2.7678e-6,
    "MEAN_MOTION_DOT": -3.32e-6,
    "MEAN_MOTION_DDOT": 0
},{
    "OBJECT_NAME": "STARLINK-3386",
    "OBJECT_ID": "2022-005Y",
    "EPOCH": "2023-07-16T17:15:35.510400",
    "MEAN_MOTION": 15.0884511,
    "ECCENTRICITY": 0.000138,
    "INCLINATION": 53.2187,
    "RA_OF_ASC_NODE": 320.0336,
    "ARG_OF_PERICENTER": 103.0377,
    "MEAN_ANOMALY": 257.077,
    "EPHEMERIS_TYPE": 0,
    "CLASSIFICATION_TYPE": "U",
    "NORAD_CAT_ID": 51126,
    "ELEMENT_SET_NO": 999,
    "REV_AT_EPOCH": 8387,
    "BSTAR": -4.5827e-5,
    "MEAN_MOTION_DOT": -1.017e-5,
    "MEAN_MOTION_DDOT": 0
},{
    "OBJECT_NAME": "STARLINK-3370",
    "OBJECT_ID": "2022-005Z",
    "EPOCH": "2023-07-16T15:34:54.296256",
    "MEAN_MOTION": 15.08840944,
    "ECCENTRICITY": 0.0001314,
    "INCLINATION": 53.2186,
    "RA_OF_ASC_NODE": 320.3448,
    "ARG_OF_PERICENTER": 100.9484,
    "MEAN_ANOMALY": 259.1656,
    "EPHEMERIS_TYPE": 0,
    "CLASSIFICATION_TYPE": "U",
    "NORAD_CAT_ID": 51127,
    "ELEMENT_SET_NO": 999,
    "REV_AT_EPOCH": 8386,
    "BSTAR": 5.5989e-5,
    "MEAN_MOTION_DOT": 6.03e-6,
    "MEAN_MOTION_DDOT": 0
},{
    "OBJECT_NAME": "STARLINK-3400",
    "OBJECT_ID": "2022-005AA",
    "EPOCH": "2023-07-16T15:07:01.935264",
    "MEAN_MOTION": 15.08836617,
    "ECCENTRICITY": 7.34e-5,
    "INCLINATION": 53.2177,
    "RA_OF_ASC_NODE": 320.4218,
    "ARG_OF_PERICENTER": 81.9596,
    "MEAN_ANOMALY": 278.1479,
    "EPHEMERIS_TYPE": 0,
    "CLASSIFICATION_TYPE": "U",
    "NORAD_CAT_ID": 51128,
    "ELEMENT_SET_NO": 999,
    "REV_AT_EPOCH": 8385,
    "BSTAR": 2.8594e-5,
    "MEAN_MOTION_DOT": 1.67e-6,
    "MEAN_MOTION_DDOT": 0
}]
